[Satellite]
VERSION=1.1
NAME=NOAA 11
NICKNAME=NOAA 11
TLE1=1 19531U 88089A   22342.39419690  .00000054  00000+0  48898-4 0  9995
TLE2=2 19531  98.4431 322.0730 0011908  41.8675 318.3408 14.15338319765426
STATUS=2
